[{"OBJECT_NAME":"HUANJING 1A (HJ-1A)","OBJECT_ID":"2008-041A","EPOCH":"2026-03-09T23:20:18.926592","MEAN_MOTION":14.83722198,"ECCENTRICITY":0.00205789,"INCLINATION":97.6638,"RA_OF_ASC_NODE":58.6973,"ARG_OF_PERICENTER":102.9318,"MEAN_ANOMALY":257.4197,"EPHEMERIS_TYPE":0,"CLASSIFICATION_TYPE":"U","NORAD_CAT_ID":33320,"ELEMENT_SET_NO":999,"REV_AT_EPOCH":94369,"BSTAR":0.0003142853,"MEAN_MOTION_DOT":2.557e-5,"MEAN_MOTION_DDOT":0},{"OBJECT_NAME":"KUIPER-00110","OBJECT_ID":"2025-171S","EPOCH":"2026-03-09T13:35:28.015008","MEAN_MOTION":14.79991247,"ECCENTRICITY":0.0001715,"INCLINATION":51.8992,"RA_OF_ASC_NODE":168.6928,"ARG_OF_PERICENTER":192.4753,"MEAN_ANOMALY":167.6167,"EPHEMERIS_TYPE":0,"CLASSIFICATION_TYPE":"U","NORAD_CAT_ID":65148,"ELEMENT_SET_NO":999,"REV_AT_EPOCH":3272,"BSTAR":0.00082011,"MEAN_MOTION_DOT":6.045e-5,"MEAN_MOTION_DDOT":0}]
